CTC2_L_00325016-03
1 10062U 24666WM  26075.70045139  .00000000  00000+0  00000-0 0  9991
2 10062 100.0000 180.0000 0000000   0.0000   0.0000 13.69880518    11
CTC2_L_00325016-04
1 10063U 26937ZK  26075.70045139  .00000000  00000+0  00000-0 0  9995
2 10063 100.0000 180.0000 0000000   0.0000  90.0000 13.69880518    11
CTC2_L_00325017-01
1 10064U 24103PT  26075.70045139  .00000000  00000+0  00000-0 0  9999
2 10064 100.0000 192.0000 0000000   0.0000 192.0000 13.69880518    18
CTC2_L_00325017-02
1 10065U 22375I   26075.70045139  .00000000  00000+0  00000-0 0  9999
2 10065 100.0000 192.0000 0000000   0.0000 282.0000 13.69880518    19
CTC2_L_00325017-03
1 10066U 23154WG  26075.70045139  .00000000  00000+0  00000-0 0  9996
2 10066 100.0000 192.0000 0000000   0.0000  12.0000 13.69880518    11
CTC2_L_00325017-04
1 10067U 25739MP  26075.70045139  .00000000  00000+0  00000-0 0  9998
2 10067 100.0000 192.0000 0000000   0.0000 102.0000 13.69880518    12
CTC2_L_00325018-01
1 10068U 22141NX  26075.70045139  .00000000  00000+0  00000-0 0  9993
2 10068 100.0000 204.0000 0000000   0.0000 204.0000 13.69880518    10
CTC2_L_00325018-02
1 10069U 25941BH  26075.70045139  .00000000  00000+0  00000-0 0  9995
2 10069 100.0000 204.0000 0000000   0.0000 294.0000 13.69880518    10
CTC2_L_00325018-03
1 10070U 25737QC  26075.70045139  .00000000  00000+0  00000-0 0  9990
2 10070 100.0000 204.0000 0000000   0.0000  24.0000 13.69880518    13
CTC2_L_00325018-04
1 10071U 26829CC  26075.70045139  .00000000  00000+0  00000-0 0  9994
2 10071 100.0000 204.0000 0000000   0.0000 114.0000 13.69880518    14
CTC2_L_00325019-01
1 10072U 24992YO  26075.70045139  .00000000  00000+0  00000-0 0  9994
2 10072 100.0000 216.0000 0000000   0.0000 216.0000 13.69880518    11
CTC2_L_00325019-02
1 10073U 24317JZ  26075.70045139  .00000000  00000+0  00000-0 0  9996
2 10073 100.0000 216.0000 0000000   0.0000 306.0000 13.69880518    12
CTC2_L_00325019-03
1 10074U 22301DY  26075.70045139  .00000000  00000+0  00000-0 0  9998
2 10074 100.0000 216.0000 0000000   0.0000  36.0000 13.69880518    13
CTC2_L_00325019-04
1 10075U 26339AN  26075.70045139  .00000000  00000+0  00000-0 0  9994
2 10075 100.0000 216.0000 0000000   0.0000 126.0000 13.69880518    14
CTC2_L_00325020-01
1 10076U 24211MF  26075.70045139  .00000000  00000+0  00000-0 0  9992
2 10076 100.0000 228.0000 0000000   0.0000 228.0000 13.69880518    11
CTC2_L_00325020-02
1 10077U 26468PG  26075.70045139  .00000000  00000+0  00000-0 0  9999
2 10077 100.0000 228.0000 0000000   0.0000 318.0000 13.69880518    12
CTC2_L_00325020-03
1 10078U 23480KI  26075.70045139  .00000000  00000+0  00000-0 0  9991
2 10078 100.0000 228.0000 0000000   0.0000  48.0000 13.69880518    13
CTC2_L_00325020-04
1 10079U 25792HE  26075.70045139  .00000000  00000+0  00000-0 0  9990
2 10079 100.0000 228.0000 0000000   0.0000 138.0000 13.69880518    14
CTC2_L_00325021-01
1 10080U 26643PF  26075.70045139  .00000000  00000+0  00000-0 0  9998
2 10080 100.0000 240.0000 0000000   0.0000 240.0000 13.69880518    14
CTC2_L_00325021-02
1 10081U 24644TJ  26075.70045139  .00000000  00000+0  00000-0 0  9998
2 10081 100.0000 240.0000 0000000   0.0000 330.0000 13.69880518    15
CTC2_L_00325021-03
1 10082U 23018EW  26075.70045139  .00000000  00000+0  00000-0 0  9993
2 10082 100.0000 240.0000 0000000   0.0000  60.0000 13.69880518    16
CTC2_L_00325021-04
1 10083U 23151DL  26075.70045139  .00000000  00000+0  00000-0 0  9992
2 10083 100.0000 240.0000 0000000   0.0000 150.0000 13.69880518    17
CTC2_L_00325022-01
1 10084U 26112GQ  26075.70045139  .00000000  00000+0  00000-0 0  9993
2 10084 100.0000 252.0000 0000000   0.0000 252.0000 13.69880518    14
CTC2_L_00325022-02
1 10085U 24334WD  26075.70045139  .00000000  00000+0  00000-0 0  9998
2 10085 100.0000 252.0000 0000000   0.0000 342.0000 13.69880518    15
CTC2_L_00325022-03
1 10086U 23843IM  26075.70045139  .00000000  00000+0  00000-0 0  9993
2 10086 100.0000 252.0000 0000000   0.0000  72.0000 13.69880518    16
CTC2_L_00325022-04
1 10087U 25790UO  26075.70045139  .00000000  00000+0  00000-0 0  9997
2 10087 100.0000 252.0000 0000000   0.0000 162.0000 13.69880518    17
CTC2_L_00325023-01
1 10088U 22878ZD  26075.70045139  .00000000  00000+0  00000-0 0  9992
2 10088 100.0000 264.0000 0000000   0.0000 264.0000 13.69880518    14
CTC2_L_00325023-02
1 10089U 25925RN  26075.70045139  .00000000  00000+0  00000-0 0  9999
2 10089 100.0000 264.0000 0000000   0.0000 354.0000 13.69880518    15
CTC2_L_00325023-03
1 10090U 26252LG  26075.70045139  .00000000  00000+0  00000-0 0  9995
2 10090 100.0000 264.0000 0000000   0.0000  84.0000 13.69880518    17
CTC2_L_00325023-04
1 10091U 22427HK  26075.70045139  .00000000  00000+0  00000-0 0  9996
2 10091 100.0000 264.0000 0000000   0.0000 174.0000 13.69880518    18
CTC2_L_00325024-01
1 10092U 22145YZ  26075.70045139  .00000000  00000+0  00000-0 0  9994
2 10092 100.0000 276.0000 0000000   0.0000 276.0000 13.69880518    15
CTC2_L_00325024-02
1 10093U 22155NR  26075.70045139  .00000000  00000+0  00000-0 0  9996
2 10093 100.0000 276.0000 0000000   0.0000   6.0000 13.69880518    17
CTC2_L_00325024-03
1 10094U 23911HP  26075.70045139  .00000000  00000+0  00000-0 0  9998
2 10094 100.0000 276.0000 0000000   0.0000  96.0000 13.69880518    17
CTC2_L_00325024-04
1 10095U 24068VG  26075.70045139  .00000000  00000+0  00000-0 0  9993
2 10095 100.0000 276.0000 0000000   0.0000 186.0000 13.69880518    18
CTC2_L_00325025-01
1 10096U 22710BB  26075.70045139  .00000000  00000+0  00000-0 0  9996
2 10096 100.0000 288.0000 0000000   0.0000 288.0000 13.69880518    15
CTC2_L_00325025-02
1 10097U 23753NH  26075.70045139  .00000000  00000+0  00000-0 0  9995
2 10097 100.0000 288.0000 0000000   0.0000  18.0000 13.69880518    17
CTC2_L_00325025-03
1 10098U 24391BB  26075.70045139  .00000000  00000+0  00000-0 0  9995
2 10098 100.0000 288.0000 0000000   0.0000 108.0000 13.69880518    18
CTC2_L_00325025-04
1 10099U 22818AM  26075.70045139  .00000000  00000+0  00000-0 0  9998
2 10099 100.0000 288.0000 0000000   0.0000 198.0000 13.69880518    18
CTC2_L_00325026-01
1 10100U 22007KL  26075.70045139  .00000000  00000+0  00000-0 0  9991
2 10100 100.0000 300.0000 0000000   0.0000 300.0000 13.69880518    11
CTC2_L_00325026-02
1 10101U 22421IB  26075.70045139  .00000000  00000+0  00000-0 0  9992
2 10101 100.0000 300.0000 0000000   0.0000  30.0000 13.69880518    12
CTC2_L_00325026-03
1 10102U 22919T   26075.70045139  .00000000  00000+0  00000-0 0  9995
2 10102 100.0000 300.0000 0000000   0.0000 120.0000 13.69880518    13
CTC2_L_00325026-04
1 10103U 24904QT  26075.70045139  .00000000  00000+0  00000-0 0  9992
2 10103 100.0000 300.0000 0000000   0.0000 210.0000 13.69880518    14
CTC2_L_00325027-01
1 10104U 22029GV  26075.70045139  .00000000  00000+0  00000-0 0  9999
2 10104 100.0000 312.0000 0000000   0.0000 312.0000 13.69880518    11
CTC2_L_00325027-02
1 10105U 26511EL  26075.70045139  .00000000  00000+0  00000-0 0  9990
2 10105 100.0000 312.0000 0000000   0.0000  42.0000 13.69880518    12
CTC2_L_00325027-03
1 10106U 24621EX  26075.70045139  .00000000  00000+0  00000-0 0  9991
2 10106 100.0000 312.0000 0000000   0.0000 132.0000 13.69880518    13
CTC2_L_00325027-04
1 10107U 26912NZ  26075.70045139  .00000000  00000+0  00000-0 0  9997
2 10107 100.0000 312.0000 0000000   0.0000 222.0000 13.69880518    14
CTC2_L_00325028-01
1 10108U 26717CX  26075.70045139  .00000000  00000+0  00000-0 0  9991
2 10108 100.0000 324.0000 0000000   0.0000 324.0000 13.69880518    11
CTC2_L_00325028-02
1 10109U 23744RX  26075.70045139  .00000000  00000+0  00000-0 0  9999
2 10109 100.0000 324.0000 0000000   0.0000  54.0000 13.69880518    12
CTC2_L_00325028-03
1 10110U 26525LL  26075.70045139  .00000000  00000+0  00000-0 0  9991
2 10110 100.0000 324.0000 0000000   0.0000 144.0000 13.69880518    14
CTC2_L_00325028-04
1 10111U 22093JB  26075.70045139  .00000000  00000+0  00000-0 0  9998
2 10111 100.0000 324.0000 0000000   0.0000 234.0000 13.69880518    15
CTC2_L_00325029-01
1 10112U 22700SR  26075.70045139  .00000000  00000+0  00000-0 0  9994
2 10112 100.0000 336.0000 0000000   0.0000 336.0000 13.69880518    12
CTC2_L_00325029-02
1 10113U 24635LI  26075.70045139  .00000000  00000+0  00000-0 0  9994
2 10113 100.0000 336.0000 0000000   0.0000  66.0000 13.69880518    13
CTC2_L_00325029-03
1 10114U 25323YZ  26075.70045139  .00000000  00000+0  00000-0 0  9990
2 10114 100.0000 336.0000 0000000   0.0000 156.0000 13.69880518    14
CTC2_L_00325029-04
1 10115U 22037KP  26075.70045139  .00000000  00000+0  00000-0 0  9990
2 10115 100.0000 336.0000 0000000   0.0000 246.0000 13.69880518    15
CTC2_L_00325030-01
1 10116U 22377FY  26075.70045139  .00000000  00000+0  00000-0 0  9998
2 10116 100.0000 348.0000 0000000   0.0000 348.0000 13.69880518    12
CTC2_L_00325030-02
1 10117U 26232TD  26075.70045139  .00000000  00000+0  00000-0 0  9993
2 10117 100.0000 348.0000 0000000   0.0000  78.0000 13.69880518    13
CTC2_L_00325030-03
1 10118U 26273HA  26075.70045139  .00000000  00000+0  00000-0 0  9999
2 10118 100.0000 348.0000 0000000   0.0000 168.0000 13.69880518    14
CTC2_L_00325030-04
1 10119U 24915EQ  26075.70045139  .00000000  00000+0  00000-0 0  9991
2 10119 100.0000 348.0000 0000000   0.0000 258.0000 13.69880518    15
